{"type": "FeatureCollection", "features": [ {"type": "Feature", "properties": {"norad_id": 44542, "name": "BEIDOU-3 M24 (C46)", "group": "gnss", "lat": -5.227777748116726, "lon": 12.47625816874622, "alt_km": 21554.38917475519, "timestamp": "2025-12-21T18:54:58.740128+00:00", "meta": {"OBJECT_NAME": "BEIDOU-3 M24 (C46)", "OBJECT_ID": "2019-061A", "EPOCH": "2025-12-20T23:21:37.865088", "MEAN_MOTION": 1.86229471, "ECCENTRICITY": 0.0009592, "INCLINATION": 54.4004, "RA_OF_ASC_NODE": 188.7381, "ARG_OF_PERICENTER": 25.7188, "MEAN_ANOMALY": 334.3821, "EPHEMERIS_TYPE": 0, "CLASSIFICATION_TYPE": "U", "NORAD_CAT_ID": 44542, "ELEMENT_SET_NO": 999, "REV_AT_EPOCH": 4247, "BSTAR": 0, "MEAN_MOTION_DOT": 9.6e-07, "MEAN_MOTION_DDOT": 0}, "tle": {"line1": "1 44542U 19061A   25354.97335492  .00000096  00000+0  00000+0 0  9990", "line2": "2 44542  54.4004 188.7381 0009592  25.7188 334.3821  1.86229471 42471"}}, "geometry": {"type": "Point", "coordinates": [12.47625816874622, -5.227777748116726]}}, {"type": "Feature", "properties": {"norad_id": 44543, "name": "BEIDOU-3 M23 (C45)", "group": "gnss", "lat": 53.359336640568976, "lon": -65.85860706871857, "alt_km": 21517.352922128295, "timestamp": "2025-12-21T18:54:58.740139+00:00", "meta": {"OBJECT_NAME": "BEIDOU-3 M23 (C45)", "OBJECT_ID": "2019-061B", "EPOCH": "2025-12-21T09:48:50.565312", "MEAN_MOTION": 1.86227721, "ECCENTRICITY": 0.00060743, "INCLINATION": 54.3995, "RA_OF_ASC_NODE": 188.6918, "ARG_OF_PERICENTER": 25.4235, "MEAN_ANOMALY": 179.4087, "EPHEMERIS_TYPE": 0, "CLASSIFICATION_TYPE": "U", "NORAD_CAT_ID": 44543, "ELEMENT_SET_NO": 999, "REV_AT_EPOCH": 4248, "BSTAR": 0, "MEAN_MOTION_DOT": 9.5e-07, "MEAN_MOTION_DDOT": 0}, "tle": {"line1": "1 44543U 19061B   25355.40891858  .00000095  00000+0  00000+0 0  9992", "line2": "2 44543  54.3995 188.6918 0006074  25.4235 179.4087  1.86227721 42486"}}, "geometry": {"type": "Point", "coordinates": [-65.85860706871857, 53.359336640568976]}}, {"type": "Feature", "properties": {"norad_id": 44624, "name": "EUTELSAT 5 WEST B (EGNOS/PRN 121)", "group": "gnss", "lat": 0.0406525152899528, "lon": 9.377275068449386, "alt_km": 35788.25830617888, "timestamp": "2025-12-21T18:54:58.740150+00:00", "meta": {"OBJECT_NAME": "EUTELSAT 5 WEST B (EGNOS/PRN 121)", "OBJECT_ID": "2019-067A", "EPOCH": "2025-12-21T09:44:56.694336", "MEAN_MOTION": 1.00271339, "ECCENTRICITY": 0.00030095, "INCLINATION": 0.0661, "RA_OF_ASC_NODE": 336.7773, "ARG_OF_PERICENTER": 293.2552, "MEAN_ANOMALY": 321.4345, "EPHEMERIS_TYPE": 0, "CLASSIFICATION_TYPE": "U", "NORAD_CAT_ID": 44624, "ELEMENT_SET_NO": 999, "REV_AT_EPOCH": 2265, "BSTAR": 0, "MEAN_MOTION_DOT": -1.9e-07, "MEAN_MOTION_DDOT": 0}, "tle": {"line1": "1 44624U 19067A   25355.40621174 -.00000019  00000+0  00000+0 0  9997", "line2": "2 44624   0.0661 336.7773 0003009 293.2552 321.4345  1.00271339 22654"}}, "geometry": {"type": "Point", "coordinates": [9.377275068449386, 0.0406525152899528]}}, {"type": "Feature", "properties": {"norad_id": 44793, "name": "BEIDOU-3 M22 (C44)", "group": "gnss", "lat": -47.959003478714, "lon": -107.31694786530323, "alt_km": 21533.45333368186, "timestamp": "2025-12-21T18:54:58.740164+00:00", "meta": {"OBJECT_NAME": "BEIDOU-3 M22 (C44)", "OBJECT_ID": "2019-078A", "EPOCH": "2025-12-21T08:24:25.549344", "MEAN_MOTION": 1.86232186, "ECCENTRICITY": 0.00060493, "INCLINATION": 54.1004, "RA_OF_ASC_NODE": 306.084, "ARG_OF_PERICENTER": 24.1688, "MEAN_ANOMALY": 335.8571, "EPHEMERIS_TYPE": 0, "CLASSIFICATION_TYPE": "U", "NORAD_CAT_ID": 44793, "ELEMENT_SET_NO": 999, "REV_AT_EPOCH": 4133, "BSTAR": 0, "MEAN_MOTION_DOT": -6.2e-07, "MEAN_MOTION_DDOT": 0}, "tle": {"line1": "1 44793U 19078A   25355.35029571 -.00000062  00000+0  00000+0 0  9991", "line2": "2 44793  54.1004 306.0840 0006049  24.1688 335.8571  1.86232186 41332"}}, "geometry": {"type": "Point", "coordinates": [-107.31694786530323, -47.959003478714]}}, {"type": "Feature", "properties": {"norad_id": 44794, "name": "BEIDOU-3 M21 (C43)", "group": "gnss", "lat": -17.018795277969133, "lon": 138.81895686385053, "alt_km": 21542.089825167375, "timestamp": "2025-12-21T18:54:58.740175+00:00", "meta": {"OBJECT_NAME": "BEIDOU-3 M21 (C43)", "OBJECT_ID": "2019-078B", "EPOCH": "2025-12-16T15:43:55.727904", "MEAN_MOTION": 1.86227668, "ECCENTRICITY": 0.00041169, "INCLINATION": 54.078, "RA_OF_ASC_NODE": 306.2132, "ARG_OF_PERICENTER": 11.942, "MEAN_ANOMALY": 348.0544, "EPHEMERIS_TYPE": 0, "CLASSIFICATION_TYPE": "U", "NORAD_CAT_ID": 44794, "ELEMENT_SET_NO": 999, "REV_AT_EPOCH": 4125, "BSTAR": 0, "MEAN_MOTION_DOT": -9.5e-07, "MEAN_MOTION_DDOT": 0}, "tle": {"line1": "1 44794U 19078B   25350.65550611 -.00000095  00000+0  00000+0 0  9990", "line2": "2 44794  54.0780 306.2132 0004116  11.9420 348.0544  1.86227668 41256"}}, "geometry": {"type": "Point", "coordinates": [138.81895686385053, -17.018795277969133]}}, {"type": "Feature", "properties": {"norad_id": 44850, "name": "COSMOS 2544 (759)", "group": "gnss", "lat": 60.5057960355509, "lon": -154.0474524665634, "alt_km": 19152.244109750107, "timestamp": "2025-12-21T18:54:58.740186+00:00", "meta": {"OBJECT_NAME": "COSMOS 2544 (759)", "OBJECT_ID": "2019-088A", "EPOCH": "2025-12-21T04:18:06.689376", "MEAN_MOTION": 2.13102125, "ECCENTRICITY": 0.00141884, "INCLINATION": 65.4644, "RA_OF_ASC_NODE": 79.6762, "ARG_OF_PERICENTER": 250.1842, "MEAN_ANOMALY": 109.6995, "EPHEMERIS_TYPE": 0, "CLASSIFICATION_TYPE": "U", "NORAD_CAT_ID": 44850, "ELEMENT_SET_NO": 999, "REV_AT_EPOCH": 4692, "BSTAR": 0, "MEAN_MOTION_DOT": -1e-07, "MEAN_MOTION_DDOT": 0}, "tle": {"line1": "1 44850U 19088A   25355.17924409 -.00000010  00000+0  00000+0 0  9993", "line2": "2 44850  65.4644  79.6762 0014188 250.1842 109.6995  2.13102125 46920"}}, "geometry": {"type": "Point", "coordinates": [-154.0474524665634, 60.5057960355509]}}, {"type": "Feature", "properties": {"norad_id": 44864, "name": "BEIDOU-3 M19 (C41)", "group": "gnss", "lat": 30.200321348862925, "lon": 91.4096508683844, "alt_km": 21543.535780071023, "timestamp": "2025-12-21T18:54:58.740203+00:00", "meta": {"OBJECT_NAME": "BEIDOU-3 M19 (C41)", "OBJECT_ID": "2019-090A", "EPOCH": "2025-12-21T08:18:55.694880", "MEAN_MOTION": 1.86231675, "ECCENTRICITY": 0.00183109, "INCLINATION": 56.3999, "RA_OF_ASC_NODE": 68.6763, "ARG_OF_PERICENTER": 285.0239, "MEAN_ANOMALY": 175.8266, "EPHEMERIS_TYPE": 0, "CLASSIFICATION_TYPE": "U", "NORAD_CAT_ID": 44864, "ELEMENT_SET_NO": 999, "REV_AT_EPOCH": 4092, "BSTAR": 0, "MEAN_MOTION_DOT": -3.6e-07, "MEAN_MOTION_DDOT": 0}, "tle": {"line1": "1 44864U 19090A   25355.34647795 -.00000036  00000+0  00000+0 0  9998", "line2": "2 44864  56.3999  68.6763 0018310 285.0239 175.8266  1.86231675 40926"}}, "geometry": {"type": "Point", "coordinates": [91.4096508683844, 30.200321348862925]}}, {"type": "Feature", "properties": {"norad_id": 44865, "name": "BEIDOU-3 M20 (C42)", "group": "gnss", "lat": 42.00288762716557, "lon": -147.99409347196004, "alt_km": 21565.493172001887, "timestamp": "2025-12-21T18:54:58.740214+00:00", "meta": {"OBJECT_NAME": "BEIDOU-3 M20 (C42)", "OBJECT_ID": "2019-090B", "EPOCH": "2025-12-21T01:49:05.066976", "MEAN_MOTION": 1.86231552, "ECCENTRICITY": 0.00154797, "INCLINATION": 56.4014, "RA_OF_ASC_NODE": 68.7196, "ARG_OF_PERICENTER": 297.2086, "MEAN_ANOMALY": 71.7471, "EPHEMERIS_TYPE": 0, "CLASSIFICATION_TYPE": "U", "NORAD_CAT_ID": 44865, "ELEMENT_SET_NO": 999, "REV_AT_EPOCH": 4090, "BSTAR": 0, "MEAN_MOTION_DOT": -3.8e-07, "MEAN_MOTION_DDOT": 0}, "tle": {"line1": "1 44865U 19090B   25355.07575309 -.00000038  00000+0  00000+0 0  9992", "line2": "2 44865  56.4014  68.7196 0015479 297.2086  71.7471  1.86231552 40909"}}, "geometry": {"type": "Point", "coordinates": [-147.99409347196004, 42.00288762716557]}}, {"type": "Feature", "properties": {"norad_id": 45344, "name": "BEIDOU-3 G2 (C60)", "group": "gnss", "lat": 1.961476233933369, "lon": 94.35050566242374, "alt_km": 35794.30277758283, "timestamp": "2025-12-21T18:54:58.740230+00:00", "meta": {"OBJECT_NAME": "BEIDOU-3 G2 (C60)", "OBJECT_ID": "2020-017A", "EPOCH": "2025-12-19T13:38:45.370752", "MEAN_MOTION": 1.00273166, "ECCENTRICITY": 0.0002079, "INCLINATION": 2.5096, "RA_OF_ASC_NODE": 44.0024, "ARG_OF_PERICENTER": 233.0917, "MEAN_ANOMALY": 96.0359, "EPHEMERIS_TYPE": 0, "CLASSIFICATION_TYPE": "U", "NORAD_CAT_ID": 45344, "ELEMENT_SET_NO": 999, "REV_AT_EPOCH": 2145, "BSTAR": 0, "MEAN_MOTION_DOT": -1.18e-06, "MEAN_MOTION_DDOT": 0}, "tle": {"line1": "1 45344U 20017A   25353.56858068 -.00000118  00000+0  00000+0 0  9993", "line2": "2 45344   2.5096  44.0024 0002079 233.0917  96.0359  1.00273166 21451"}}, "geometry": {"type": "Point", "coordinates": [94.35050566242374, 1.961476233933369]}}, {"type": "Feature", "properties": {"norad_id": 45358, "name": "COSMOS 2545 (760)", "group": "gnss", "lat": -37.970875699460834, "lon": -63.25789422950833, "alt_km": 19123.219224353983, "timestamp": "2025-12-21T18:54:58.740257+00:00", "meta": {"OBJECT_NAME": "COSMOS 2545 (760)", "OBJECT_ID": "2020-018A", "EPOCH": "2025-12-20T21:44:12.708096", "MEAN_MOTION": 2.13102664, "ECCENTRICITY": 0.00114269, "INCLINATION": 64.4648, "RA_OF_ASC_NODE": 318.6832, "ARG_OF_PERICENTER": 250.0027, "MEAN_ANOMALY": 109.8672, "EPHEMERIS_TYPE": 0, "CLASSIFICATION_TYPE": "U", "NORAD_CAT_ID": 45358, "ELEMENT_SET_NO": 999, "REV_AT_EPOCH": 4486, "BSTAR": 0, "MEAN_MOTION_DOT": -5e-07, "MEAN_MOTION_DDOT": 0}, "tle": {"line1": "1 45358U 20018A   25354.90570264 -.00000050  00000+0  00000+0 0  9992", "line2": "2 45358  64.4648 318.6832 0011426 250.0027 109.8672  2.13102664 44860"}}, "geometry": {"type": "Point", "coordinates": [-63.25789422950833, -37.970875699460834]}}]}